KUIPER-00114            
1 65151U 25171V   26198.78854782  .00001509  00000+0  22696-3 0  9991
2 65151  51.9012 320.2985 0000513 114.3429 245.7587 14.79932551 51909
KUIPER-00115            
1 65152U 25171W   26198.72910909  .00000562  00000+0  10275-3 0  9998
2 65152  51.9027 313.0624 0000445 128.2443 231.8559 14.79930274 52007
KUIPER-00116            
1 65153U 25171X   26198.62240313 -.00004727  00000+0 -59134-3 0  9999
2 65153  51.9012 318.5695 0001134  97.8424 262.2667 14.79944394 51911
KUIPER-00118            
1 65154U 25171Y   26198.75476785  .00001412  00000+0  21412-3 0  9992
2 65154  51.9009 320.4348 0000445 109.6216 250.4794 14.79931959 51902
KUIPER-00119            
1 65155U 25171Z   26198.83581758  .00004584  00000+0  63025-3 0  9998
2 65155  51.9023 307.6712 0000514  13.4497 346.6479 14.79911009 52083
KUIPER-00120            
1 65762U 25217A   26198.39733183  .00001047  00000+0  16630-3 0  9996
2 65762  51.8979 199.4883 0000499  63.2956 296.8058 14.79935664 43944
KUIPER-00132            
1 65763U 25217B   26198.97450682  .00015506  00000+0  34996-3 0  9991
2 65763  51.8546  89.1282 0007331  75.5741 284.6061 15.43380440 45526
KUIPER-00133            
1 65764U 25217C   26198.97134660  .00001051  00000+0  16687-3 0  9994
2 65764  51.9006 197.0591 0000588  64.2011 295.9012 14.79936133 44033
KUIPER-00139            
1 65765U 25217D   26198.93885410 -.00000400  00000+0 -23526-4 0  9997
2 65765  51.8982 164.6606 0000752  79.5670 280.5377 14.79929750 44486
KUIPER-00142            
1 65766U 25217E   26198.34864780 -.00000656  00000+0 -57074-4 0  9998
2 65766  51.8985 182.2326 0000758  46.4507 313.6518 14.79928926 44189
KUIPER-00145            
1 65767U 25217F   26198.34604567  .00001132  00000+0  17753-3 0  9991
2 65767  51.8996 184.7654 0000627  61.1489 298.9536 14.79922911 44140
KUIPER-00147            
1 65768U 25217G   26198.98478635 -.00001125  00000+0 -11863-3 0  9997
2 65768  51.8958 184.4191 0000837 123.8854 236.2188 14.79937207 44206
KUIPER-00148            
1 65769U 25217H   26198.91668981  .00010736  00000+0  14345-2 0  9999
2 65769  51.9038 167.2348 0000522  68.7885 187.8718 14.79949589  5261
KUIPER-00150            
1 65770U 25217J   26198.97401181  .00020072  00000+0  26588-2 0  9990
2 65770  51.8994 194.5024 0001735  82.4838 277.6322 14.79857135 44060
KUIPER-00151            
1 65771U 25217K   26198.50938373 -.00000910  00000+0 -90327-4 0  9993
2 65771  51.8997 189.0565 0000641  50.6672 309.4347 14.79928682 44103
KUIPER-00152            
1 65772U 25217L   26198.96186233  .00001106  00000+0  17406-3 0  9996
2 65772  51.9002 174.5386 0000625  61.5787 298.5239 14.79934066 44349
