{"fetched_at":"2026-07-18T06:27:44.179Z","source":"https://celestrak.org/NORAD/elements/gp.php?GROUP=kuiper&FORMAT=JSON","constellation":"kuiper","records":[{"OBJECT_NAME":"KUIPER-00114","OBJECT_ID":"2025-171V","EPOCH":"2026-07-17T18:55:30.531648","CLASSIFICATION_TYPE":"U","MEAN_MOTION":14.79932551,"ECCENTRICITY":0.0000513,"INCLINATION":51.9012,"RA_OF_ASC_NODE":320.2985,"ARG_OF_PERICENTER":114.3429,"MEAN_ANOMALY":245.7587,"EPHEMERIS_TYPE":0,"NORAD_CAT_ID":65151,"ELEMENT_SET_NO":999,"REV_AT_EPOCH":5190,"BSTAR":0.00022695889,"MEAN_MOTION_DOT":0.00001509,"MEAN_MOTION_DDOT":0},{"OBJECT_NAME":"KUIPER-00115","OBJECT_ID":"2025-171W","EPOCH":"2026-07-17T17:29:55.025376","CLASSIFICATION_TYPE":"U","MEAN_MOTION":14.79930274,"ECCENTRICITY":0.00004455,"INCLINATION":51.9027,"RA_OF_ASC_NODE":313.0624,"ARG_OF_PERICENTER":128.2443,"MEAN_ANOMALY":231.8559,"EPHEMERIS_TYPE":0,"NORAD_CAT_ID":65152,"ELEMENT_SET_NO":999,"REV_AT_EPOCH":5200,"BSTAR":0.00010274873,"MEAN_MOTION_DOT":0.00000562,"MEAN_MOTION_DDOT":0},{"OBJECT_NAME":"KUIPER-00116","OBJECT_ID":"2025-171X","EPOCH":"2026-07-17T14:56:15.630432","CLASSIFICATION_TYPE":"U","MEAN_MOTION":14.79944394,"ECCENTRICITY":0.0001134,"INCLINATION":51.9012,"RA_OF_ASC_NODE":318.5695,"ARG_OF_PERICENTER":97.8424,"MEAN_ANOMALY":262.2667,"EPHEMERIS_TYPE":0,"NORAD_CAT_ID":65153,"ELEMENT_SET_NO":999,"REV_AT_EPOCH":5191,"BSTAR":-0.00059134,"MEAN_MOTION_DOT":-0.00004727,"MEAN_MOTION_DDOT":0},{"OBJECT_NAME":"KUIPER-00118","OBJECT_ID":"2025-171Y","EPOCH":"2026-07-17T18:06:51.942240","CLASSIFICATION_TYPE":"U","MEAN_MOTION":14.79931959,"ECCENTRICITY":0.00004458,"INCLINATION":51.9009,"RA_OF_ASC_NODE":320.4348,"ARG_OF_PERICENTER":109.6216,"MEAN_ANOMALY":250.4794,"EPHEMERIS_TYPE":0,"NORAD_CAT_ID":65154,"ELEMENT_SET_NO":999,"REV_AT_EPOCH":5190,"BSTAR":0.00021412354,"MEAN_MOTION_DOT":0.00001412,"MEAN_MOTION_DDOT":0},{"OBJECT_NAME":"KUIPER-00119","OBJECT_ID":"2025-171Z","EPOCH":"2026-07-17T20:03:34.638912","CLASSIFICATION_TYPE":"U","MEAN_MOTION":14.79911009,"ECCENTRICITY":0.00005148,"INCLINATION":51.9023,"RA_OF_ASC_NODE":307.6712,"ARG_OF_PERICENTER":13.4497,"MEAN_ANOMALY":346.6479,"EPHEMERIS_TYPE":0,"NORAD_CAT_ID":65155,"ELEMENT_SET_NO":999,"REV_AT_EPOCH":5208,"BSTAR":0.00063024685,"MEAN_MOTION_DOT":0.00004584,"MEAN_MOTION_DDOT":0},{"OBJECT_NAME":"KUIPER-00120","OBJECT_ID":"2025-217A","EPOCH":"2026-07-17T09:32:09.470112","CLASSIFICATION_TYPE":"U","MEAN_MOTION":14.79935664,"ECCENTRICITY":0.0000499,"INCLINATION":51.8979,"RA_OF_ASC_NODE":199.4883,"ARG_OF_PERICENTER":63.2956,"MEAN_ANOMALY":296.8058,"EPHEMERIS_TYPE":0,"NORAD_CAT_ID":65762,"ELEMENT_SET_NO":999,"REV_AT_EPOCH":4394,"BSTAR":0.0001663,"MEAN_MOTION_DOT":0.00001047,"MEAN_MOTION_DDOT":0},{"OBJECT_NAME":"KUIPER-00132","OBJECT_ID":"2025-217B","EPOCH":"2026-07-17T23:23:17.389248","CLASSIFICATION_TYPE":"U","MEAN_MOTION":15.4338044,"ECCENTRICITY":0.00073317,"INCLINATION":51.8546,"RA_OF_ASC_NODE":89.1282,"ARG_OF_PERICENTER":75.5741,"MEAN_ANOMALY":284.6061,"EPHEMERIS_TYPE":0,"NORAD_CAT_ID":65763,"ELEMENT_SET_NO":999,"REV_AT_EPOCH":4552,"BSTAR":0.00034996403,"MEAN_MOTION_DOT":0.00015506,"MEAN_MOTION_DDOT":0},{"OBJECT_NAME":"KUIPER-00133","OBJECT_ID":"2025-217C","EPOCH":"2026-07-17T23:18:44.346240","CLASSIFICATION_TYPE":"U","MEAN_MOTION":14.79936133,"ECCENTRICITY":0.00005881,"INCLINATION":51.9006,"RA_OF_ASC_NODE":197.0591,"ARG_OF_PERICENTER":64.2011,"MEAN_ANOMALY":295.9012,"EPHEMERIS_TYPE":0,"NORAD_CAT_ID":65764,"ELEMENT_SET_NO":999,"REV_AT_EPOCH":4403,"BSTAR":0.0001668656,"MEAN_MOTION_DOT":0.00001051,"MEAN_MOTION_DDOT":0},{"OBJECT_NAME":"KUIPER-00139","OBJECT_ID":"2025-217D","EPOCH":"2026-07-17T22:31:56.994240","CLASSIFICATION_TYPE":"U","MEAN_MOTION":14.7992975,"ECCENTRICITY":0.00007528,"INCLINATION":51.8982,"RA_OF_ASC_NODE":164.6606,"ARG_OF_PERICENTER":79.567,"MEAN_ANOMALY":280.5377,"EPHEMERIS_TYPE":0,"NORAD_CAT_ID":65765,"ELEMENT_SET_NO":999,"REV_AT_EPOCH":4448,"BSTAR":-0.000023526164,"MEAN_MOTION_DOT":-0.000004,"MEAN_MOTION_DDOT":0},{"OBJECT_NAME":"KUIPER-00142","OBJECT_ID":"2025-217E","EPOCH":"2026-07-17T08:22:03.169920","CLASSIFICATION_TYPE":"U","MEAN_MOTION":14.79928926,"ECCENTRICITY":0.0000758,"INCLINATION":51.8985,"RA_OF_ASC_NODE":182.2326,"ARG_OF_PERICENTER":46.4507,"MEAN_ANOMALY":313.6518,"EPHEMERIS_TYPE":0,"NORAD_CAT_ID":65766,"ELEMENT_SET_NO":999,"REV_AT_EPOCH":4418,"BSTAR":-0.000057074,"MEAN_MOTION_DOT":-0.00000656,"MEAN_MOTION_DDOT":0},{"OBJECT_NAME":"KUIPER-00145","OBJECT_ID":"2025-217F","EPOCH":"2026-07-17T08:18:18.345888","CLASSIFICATION_TYPE":"U","MEAN_MOTION":14.79922911,"ECCENTRICITY":0.0000627,"INCLINATION":51.8996,"RA_OF_ASC_NODE":184.7654,"ARG_OF_PERICENTER":61.1489,"MEAN_ANOMALY":298.9536,"EPHEMERIS_TYPE":0,"NORAD_CAT_ID":65767,"ELEMENT_SET_NO":999,"REV_AT_EPOCH":4414,"BSTAR":0.00017753,"MEAN_MOTION_DOT":0.00001132,"MEAN_MOTION_DDOT":0},{"OBJECT_NAME":"KUIPER-00147","OBJECT_ID":"2025-217G","EPOCH":"2026-07-17T23:38:05.540640","CLASSIFICATION_TYPE":"U","MEAN_MOTION":14.79937207,"ECCENTRICITY":0.00008376,"INCLINATION":51.8958,"RA_OF_ASC_NODE":184.4191,"ARG_OF_PERICENTER":123.8854,"MEAN_ANOMALY":236.2188,"EPHEMERIS_TYPE":0,"NORAD_CAT_ID":65768,"ELEMENT_SET_NO":999,"REV_AT_EPOCH":4420,"BSTAR":-0.00011863077,"MEAN_MOTION_DOT":-0.00001125,"MEAN_MOTION_DDOT":0},{"OBJECT_NAME":"KUIPER-00148","OBJECT_ID":"2025-217H","EPOCH":"2026-07-17T22:00:01.999584","CLASSIFICATION_TYPE":"U","MEAN_MOTION":14.79949589,"ECCENTRICITY":0.0000522,"INCLINATION":51.9038,"RA_OF_ASC_NODE":167.2348,"ARG_OF_PERICENTER":68.7885,"MEAN_ANOMALY":187.8718,"EPHEMERIS_TYPE":0,"NORAD_CAT_ID":65769,"ELEMENT_SET_NO":999,"REV_AT_EPOCH":526,"BSTAR":0.001434485,"MEAN_MOTION_DOT":0.00010736,"MEAN_MOTION_DDOT":0},{"OBJECT_NAME":"KUIPER-00150","OBJECT_ID":"2025-217J","EPOCH":"2026-07-17T23:22:34.620384","CLASSIFICATION_TYPE":"U","MEAN_MOTION":14.79857135,"ECCENTRICITY":0.00017353,"INCLINATION":51.8994,"RA_OF_ASC_NODE":194.5024,"ARG_OF_PERICENTER":82.4838,"MEAN_ANOMALY":277.6322,"EPHEMERIS_TYPE":0,"NORAD_CAT_ID":65770,"ELEMENT_SET_NO":999,"REV_AT_EPOCH":4406,"BSTAR":0.0026587877,"MEAN_MOTION_DOT":0.00020072,"MEAN_MOTION_DDOT":0},{"OBJECT_NAME":"KUIPER-00151","OBJECT_ID":"2025-217K","EPOCH":"2026-07-17T12:13:30.754272","CLASSIFICATION_TYPE":"U","MEAN_MOTION":14.79928682,"ECCENTRICITY":0.0000641,"INCLINATION":51.8997,"RA_OF_ASC_NODE":189.0565,"ARG_OF_PERICENTER":50.6672,"MEAN_ANOMALY":309.4347,"EPHEMERIS_TYPE":0,"NORAD_CAT_ID":65771,"ELEMENT_SET_NO":999,"REV_AT_EPOCH":4410,"BSTAR":-0.000090327,"MEAN_MOTION_DOT":-0.0000091,"MEAN_MOTION_DDOT":0},{"OBJECT_NAME":"KUIPER-00152","OBJECT_ID":"2025-217L","EPOCH":"2026-07-17T23:05:04.905312","CLASSIFICATION_TYPE":"U","MEAN_MOTION":14.79934066,"ECCENTRICITY":0.00006256,"INCLINATION":51.9002,"RA_OF_ASC_NODE":174.5386,"ARG_OF_PERICENTER":61.5787,"MEAN_ANOMALY":298.5239,"EPHEMERIS_TYPE":0,"NORAD_CAT_ID":65772,"ELEMENT_SET_NO":999,"REV_AT_EPOCH":4434,"BSTAR":0.00017406065,"MEAN_MOTION_DOT":0.00001106,"MEAN_MOTION_DDOT":0}]}
